{
  "norad_id": 61637,
  "name": "STARLINK-32419",
  "history": [
    {
      "epoch": "2026-04-12T22:42:56.904480Z",
      "apogee_km": 483.91756467475807,
      "perigee_km": 482.1701591328492,
      "latitude_deg": 1.192494742761215e-05,
      "longitude_deg": 139.32128141370333,
      "height_km": 482.85715011618436,
      "semi_major_axis_km": 6861.180861903804,
      "eccentricity": 0.00012734,
      "inclination_deg": 43.001,
      "raan_deg": 321.2027,
      "arg_perigee_deg": 267.5999,
      "mean_anomaly_deg": 92.4707,
      "mean_motion_rev_day": 15.27581748
    },
    {
      "epoch": "2026-04-14T20:13:29.400096Z",
      "apogee_km": 484.33254878284606,
      "perigee_km": 481.79253271286143,
      "latitude_deg": 4.290290435399212e-05,
      "longitude_deg": 164.10432857505452,
      "height_km": 483.08035213269613,
      "semi_major_axis_km": 6861.1995407478535,
      "eccentricity": 0.0001851,
      "inclination_deg": 42.9997,
      "raan_deg": 310.4901,
      "arg_perigee_deg": 259.0681,
      "mean_anomaly_deg": 100.9963,
      "mean_motion_rev_day": 15.2757551
    },
    {
      "epoch": "2026-04-14T23:21:48.186432Z",
      "apogee_km": 483.9181733549485,
      "perigee_km": 482.20191352650363,
      "latitude_deg": 6.42573933830322e-06,
      "longitude_deg": 116.16271773015177,
      "height_km": 482.91547392730376,
      "semi_major_axis_km": 6861.197043440726,
      "eccentricity": 0.00012507,
      "inclination_deg": 43.0007,
      "raan_deg": 309.7557,
      "arg_perigee_deg": 264.7318,
      "mean_anomaly_deg": 95.3391,
      "mean_motion_rev_day": 15.27576344
    },
    {
      "epoch": "2026-04-16T19:18:10.761408Z",
      "apogee_km": 484.0093005205108,
      "perigee_km": 482.0977728369917,
      "latitude_deg": -1.2702133784407631e-05,
      "longitude_deg": 164.92370307357385,
      "height_km": 482.87621770423476,
      "semi_major_axis_km": 6861.1905366787505,
      "eccentricity": 0.0001393,
      "inclination_deg": 43.0015,
      "raan_deg": 299.4153,
      "arg_perigee_deg": 267.2519,
      "mean_anomaly_deg": 92.8173,
      "mean_motion_rev_day": 15.27578517
    },
    {
      "epoch": "2026-04-17T21:58:50.860416Z",
      "apogee_km": 484.26354366107444,
      "perigee_km": 482.1241806982471,
      "latitude_deg": 2.7858230554170166e-05,
      "longitude_deg": 117.3825500241837,
      "height_km": 483.3331215237009,
      "semi_major_axis_km": 6861.3308621796605,
      "eccentricity": 0.0001559,
      "inclination_deg": 43.0022,
      "raan_deg": 293.1368,
      "arg_perigee_deg": 250.202,
      "mean_anomaly_deg": 109.8664,
      "mean_motion_rev_day": 15.27531655
    },
    {
      "epoch": "2026-04-18T18:22:51.880800Z",
      "apogee_km": 485.06573692786696,
      "perigee_km": 480.7391654499461,
      "latitude_deg": 1.5055097233010063e-06,
      "longitude_deg": 165.74016054283544,
      "height_km": 482.88064265170095,
      "semi_major_axis_km": 6861.039451188906,
      "eccentricity": 0.0003153,
      "inclination_deg": 43.006,
      "raan_deg": 288.3365,
      "arg_perigee_deg": 264.7054,
      "mean_anomaly_deg": 95.3438,
      "mean_motion_rev_day": 15.27628975
    }
  ]
}